{
  "type": "FeatureCollection",
  "features": [
    {
      "type": "Feature",
      "id": "BBMP_OUTER_BOUNDS",
      "properties": {
        "name": "Bruhat Bengaluru Mahanagara Palike (BBMP)"
      },
      "geometry": {
        "type": "Polygon",
        "coordinates": [
          [
            [
              77.45,
              12.83
            ],
            [
              77.78,
              12.83
            ],
            [
              77.78,
              13.15
            ],
            [
              77.45,
              13.15
            ],
            [
              77.45,
              12.83
            ]
          ]
        ]
      }
    }
  ]
}