{
  "type": "FeatureCollection",
  "name": "bbmp_wards",
  "crs": {
    "type": "name",
    "properties": {
      "name": "urn:ogc:def:crs:OGC:1.3:CRS84"
    }
  },
  "features": [
    {
      "type": "Feature",
      "id": "W167",
      "properties": {
        "ward_number": 167,
        "ward_name": "Jayanagar",
        "zone": "South Zone",
        "assembly_constituency": "Jayanagar",
        "area_sq_km": 4.2
      },
      "geometry": {
        "type": "Polygon",
        "coordinates": [
          [
            [
              77.58,
              12.915
            ],
            [
              77.605,
              12.915
            ],
            [
              77.605,
              12.935
            ],
            [
              77.58,
              12.935
            ],
            [
              77.58,
              12.915
            ]
          ]
        ]
      }
    },
    {
      "type": "Feature",
      "id": "W112",
      "properties": {
        "ward_number": 112,
        "ward_name": "Indiranagar",
        "zone": "East Zone",
        "assembly_constituency": "CV Raman Nagar",
        "area_sq_km": 5.1
      },
      "geometry": {
        "type": "Polygon",
        "coordinates": [
          [
            [
              77.63,
              12.965
            ],
            [
              77.655,
              12.965
            ],
            [
              77.655,
              12.985
            ],
            [
              77.63,
              12.985
            ],
            [
              77.63,
              12.965
            ]
          ]
        ]
      }
    },
    {
      "type": "Feature",
      "id": "W151",
      "properties": {
        "ward_number": 151,
        "ward_name": "Koramangala",
        "zone": "South Zone",
        "assembly_constituency": "BTM Layout",
        "area_sq_km": 6.3
      },
      "geometry": {
        "type": "Polygon",
        "coordinates": [
          [
            [
              77.61,
              12.92
            ],
            [
              77.635,
              12.92
            ],
            [
              77.635,
              12.945
            ],
            [
              77.61,
              12.945
            ],
            [
              77.61,
              12.92
            ]
          ]
        ]
      }
    },
    {
      "type": "Feature",
      "id": "W85",
      "properties": {
        "ward_number": 85,
        "ward_name": "Malleshwaram",
        "zone": "West Zone",
        "assembly_constituency": "Malleshwaram",
        "area_sq_km": 3.8
      },
      "geometry": {
        "type": "Polygon",
        "coordinates": [
          [
            [
              77.56,
              12.99
            ],
            [
              77.585,
              12.99
            ],
            [
              77.585,
              13.015
            ],
            [
              77.56,
              13.015
            ],
            [
              77.56,
              12.99
            ]
          ]
        ]
      }
    },
    {
      "type": "Feature",
      "id": "W82",
      "properties": {
        "ward_number": 82,
        "ward_name": "Garudacharpalya / Whitefield",
        "zone": "Mahadevapura",
        "assembly_constituency": "Mahadevapura",
        "area_sq_km": 12.5
      },
      "geometry": {
        "type": "Polygon",
        "coordinates": [
          [
            [
              77.71,
              12.97
            ],
            [
              77.76,
              12.97
            ],
            [
              77.76,
              13.01
            ],
            [
              77.71,
              13.01
            ],
            [
              77.71,
              12.97
            ]
          ]
        ]
      }
    },
    {
      "type": "Feature",
      "id": "W35",
      "properties": {
        "ward_number": 35,
        "ward_name": "Yelahanka Satellite Town",
        "zone": "Yelahanka",
        "assembly_constituency": "Yelahanka",
        "area_sq_km": 14.8
      },
      "geometry": {
        "type": "Polygon",
        "coordinates": [
          [
            [
              77.57,
              13.08
            ],
            [
              77.62,
              13.08
            ],
            [
              77.62,
              13.13
            ],
            [
              77.57,
              13.13
            ],
            [
              77.57,
              13.08
            ]
          ]
        ]
      }
    },
    {
      "type": "Feature",
      "id": "W175",
      "properties": {
        "ward_number": 175,
        "ward_name": "Bommanahalli",
        "zone": "Bommanahalli",
        "assembly_constituency": "Bommanahalli",
        "area_sq_km": 8.9
      },
      "geometry": {
        "type": "Polygon",
        "coordinates": [
          [
            [
              77.6,
              12.88
            ],
            [
              77.64,
              12.88
            ],
            [
              77.64,
              12.91
            ],
            [
              77.6,
              12.91
            ],
            [
              77.6,
              12.88
            ]
          ]
        ]
      }
    },
    {
      "type": "Feature",
      "id": "W149",
      "properties": {
        "ward_number": 149,
        "ward_name": "Vasanth Nagar / MG Road Central",
        "zone": "East Zone",
        "assembly_constituency": "Shivajinagar",
        "area_sq_km": 4.0
      },
      "geometry": {
        "type": "Polygon",
        "coordinates": [
          [
            [
              77.585,
              12.965
            ],
            [
              77.615,
              12.965
            ],
            [
              77.615,
              12.985
            ],
            [
              77.585,
              12.985
            ],
            [
              77.585,
              12.965
            ]
          ]
        ]
      }
    }
  ]
}